{
    "links": {
        "self": "http://www.neowsapp.com/rest/v1/neo/3678561?api_key=iIulBulltgU6a56xZRHN4H3l9WmuAYTsLGpBGhQ2"
    },
    "id": "3678561",
    "neo_reference_id": "3678561",
    "name": "(2014 OZ337)",
    "designation": "2014 OZ337",
    "nasa_jpl_url": "http://ssd.jpl.nasa.gov/sbdb.cgi?sstr=3678561",
    "absolute_magnitude_h": 22.5,
    "estimated_diameter": {
        "kilometers": {
            "estimated_diameter_min": 0.0840533402,
            "estimated_diameter_max": 0.1879489824
        },
        "meters": {
            "estimated_diameter_min": 84.0533402073,
            "estimated_diameter_max": 187.9489824394
        },
        "miles": {
            "estimated_diameter_min": 0.0522283081,
            "estimated_diameter_max": 0.1167860472
        },
        "feet": {
            "estimated_diameter_min": 275.7655606856,
            "estimated_diameter_max": 616.6305395464
        }
    },
    "is_potentially_hazardous_asteroid": false,
    "close_approach_data": [
        {
            "close_approach_date": "2004-08-27",
            "close_approach_date_full": "2004-Aug-27 13:38",
            "epoch_date_close_approach": 1093613880000,
            "relative_velocity": {
                "kilometers_per_second": "23.8970734301",
                "kilometers_per_hour": "86029.4643484504",
                "miles_per_hour": "53455.3635558468"
            },
            "miss_distance": {
                "astronomical": "0.4595369062",
                "lunar": "178.7598565118",
                "kilometers": "68745742.353909794",
                "miles": "42716623.5025673972"
            },
            "orbiting_body": "Earth"
        },
        {
            "close_approach_date": "2014-07-25",
            "close_approach_date_full": "2014-Jul-25 23:15",
            "epoch_date_close_approach": 1406330100000,
            "relative_velocity": {
                "kilometers_per_second": "10.8571985031",
                "kilometers_per_hour": "39085.9146111672",
                "miles_per_hour": "24286.4673315889"
            },
            "miss_distance": {
                "astronomical": "0.0212078411",
                "lunar": "8.2498501879",
                "kilometers": "3172647.855858457",
                "miles": "1971391.9629704266"
            },
            "orbiting_body": "Earth"
        },
        {
            "close_approach_date": "2024-04-19",
            "close_approach_date_full": "2024-Apr-19 16:05",
            "epoch_date_close_approach": 1713542700000,
            "relative_velocity": {
                "kilometers_per_second": "17.7703212044",
                "kilometers_per_hour": "63973.1563360128",
                "miles_per_hour": "39750.4315022297"
            },
            "miss_distance": {
                "astronomical": "0.2614763422",
                "lunar": "101.7142971158",
                "kilometers": "39116303.848511114",
                "miles": "24305744.1391328132"
            },
            "orbiting_body": "Earth"
        },
        {
            "close_approach_date": "2047-08-23",
            "close_approach_date_full": "2047-Aug-23 16:57",
            "epoch_date_close_approach": 2450192220000,
            "relative_velocity": {
                "kilometers_per_second": "20.9867577146",
                "kilometers_per_hour": "75552.3277725071",
                "miles_per_hour": "46945.2783317559"
            },
            "miss_distance": {
                "astronomical": "0.3524061757",
                "lunar": "137.0860023473",
                "kilometers": "52719213.259565759",
                "miles": "32758200.1015711142"
            },
            "orbiting_body": "Earth"
        }
    ],
    "orbital_data": {
        "orbit_id": "16",
        "orbit_determination_date": "2017-04-06 08:39:27",
        "first_observation_date": "2014-07-31",
        "last_observation_date": "2014-09-19",
        "data_arc_in_days": 50,
        "observations_used": 148,
        "orbit_uncertainty": "6",
        "minimum_orbit_intersection": ".0209851",
        "jupiter_tisserand_invariant": "3.414",
        "epoch_osculation": "2459000.5",
        "eccentricity": ".5709024022757506",
        "semi_major_axis": "2.218093997150121",
        "inclination": "5.070510998061492",
        "ascending_node_longitude": "314.9736300832044",
        "orbital_period": "1206.613962779281",
        "perihelion_distance": ".951778805703695",
        "perihelion_argument": "311.4360926513034",
        "aphelion_distance": "3.484409188596548",
        "perihelion_time": "2459249.020794136714",
        "mean_anomaly": "285.8524361154082",
        "mean_motion": ".2983555727888197",
        "equinox": "J2000",
        "orbit_class": {
            "orbit_class_type": "APO",
            "orbit_class_description": "Near-Earth asteroid orbits which cross the Earth’s orbit similar to that of 1862 Apollo",
            "orbit_class_range": "a (semi-major axis) > 1.0 AU; q (perihelion) < 1.017 AU"
        }
    },
    "is_sentry_object": false
}